JILIN-1 09              
1 43943U 19005B   25157.11445864  .00003660  00000+0  19403-3 0  9995
2 43943  97.4801 251.4536 0002032 355.9684   4.1531 15.16003269352082
JILIN-1 10              
1 43946U 19005E   25157.07555133  .00005112  00000+0  23980-3 0  9993
2 43946  97.4805 252.5346 0009944 150.1381 210.0423 15.20070220352071
EGYPTSAT-A (MISRSAT-A)  
1 44047U 19008A   25157.18218911  .00000623  00000+0  10627-3 0  9997
2 44047  98.0202 222.3926 0001633 112.9869 247.1511 14.72341217337913
EMISAT                  
1 44078U 19018A   25157.14865599  .00000239  00000+0  82832-4 0  9999
2 44078  98.2869 214.2222 0017034 270.9624  88.9615 14.43771513325796
JILIN-1 GAOFEN 3A       
1 44312U 19032C   25157.18078134  .00005972  00000+0  26210-3 0  9997
2 44312  44.9799 250.1276 0013322 310.3655  49.6062 15.22802863330421
XIAOXIANG 4             
1 44313U 19032D   25157.18264008  .00042032  00000+0  64425-3 0  9993
2 44313  44.9891 186.8968 0016260  16.1391 344.0017 15.53544133331217
WT 1A                   
1 44315U 19032F   25157.17587357  .00015923  00000+0  41899-3 0  9998
2 44315  44.9848 202.5246 0016224 357.9338   2.1480 15.38321652330984
WT 1B                   
1 44316U 19032G   25156.77604487  .00008280  00000+0  41738-3 0  9998
2 44316  44.9770 299.8988 0016684 265.3737  94.5236 15.17507553329723
PROX-1                  
1 44339U 19036A   25156.90942065  .00008486  00000+0  10652-2 0  9997
2 44339  23.9962  85.9052 0007099  33.1533 326.9409 14.79895870317471
NPSAT1                  
1 44340U 19036B   25156.34402402  .00004236  00000+0  66008-3 0  9999
2 44340  23.9976 142.2074 0007969 287.9370  72.0256 14.69501581316967
FORMOSAT 7-3            
1 44343U 19036E   25156.55867394  .00003661  00000+0  22457-3 0  9991
2 44343  23.9989 242.4758 0001266 110.7293 249.3345 15.05684754326332
FORMOSAT 7-1            
1 44349U 19036L   25156.89276386  .00003775  00000+0  23305-3 0  9998
2 44349  23.9994  56.2097 0001564 216.4048 143.6348 15.05554980328152
FORMOSAT 7-4            
1 44350U 19036M   25156.91355514  .00003721  00000+0  22973-3 0  9995
2 44350  23.9978 118.1379 0001139 116.2268 243.8352 15.05506710327577
FORMOSAT 7-2            
1 44351U 19036N   25157.20239452  .00003113  00000+0  18796-3 0  9994
2 44351  23.9967 170.5086 0001077 148.6606 211.3961 15.05615906327180
FORMOSAT 7-6            
1 44353U 19036Q   25156.80438335  .00003977  00000+0  24663-3 0  9990
2 44353  23.9995 354.0512 0000588 257.6763 102.3674 15.05573204325303
FORMOSAT 7-5            
1 44358U 19036V   25156.51566619  .00003845  00000+0  23792-3 0  9996
2 44358  23.9999 295.7918 0000993  79.8959 280.1655 15.05536234325782
METEOR-M2 2             
1 44387U 19038A   25157.12556562  .00000096  00000+0  61473-4 0  9998
2 44387  98.8739 134.7727 0002017  52.9159 307.2203 14.24207897307768
SONATE                  
1 44400U 19038Q   25156.93631030  .00260510  27867-4  76067-3 0  9994
2 44400  97.6891 183.4680 0006502 210.7605 149.3288 15.92781285328992
COSMOS 2535             
1 44421U 19039A   25157.14356869  .00001068  00000+0  11411-3 0  9994
2 44421  97.6186 194.0100 0009360  33.9641 326.2175 14.90749553320494
QIANSHENG 1-01          
1 44486U 19052A   25157.20236428  .00139888  00000+0  95272-3 0  9994
2 44486  97.3567 236.7515 0004384 137.7365 222.4238 15.74455869321301
GLOBAL-4                
1 44499U 19054E   25157.12857106  .00012078  00000+0  31557-3 0  9990
2 44499  45.0102 197.9378 0003988  58.2934 301.8342 15.38877715322108
ZY-1 02D                
1 44528U 19059A   25157.15053811  .00000143  00000+0  64540-4 0  9991
2 44528  98.3676 225.8786 0002281 134.1349 226.0025 14.35436769300390
TAURUS-1 (JINNIUZUO 1)  
1 44530U 19059C   25157.17680294  .00004294  00000+0  79583-3 0  9990
2 44530  98.6063 296.4084 0009851  54.9433 305.2691 14.65815215303442
ZHUHAI-1 03A            
1 44534U 19060A   25157.15454802  .00114236  00000+0  74206-3 0  9993
2 44534  97.5186 303.6023 0007406 189.0748 171.0384 15.75601893318752
ZHUHAI-1 03B            
1 44536U 19060C   25157.17956904  .00011065  00000+0  35125-3 0  9990
2 44536  97.5161 297.5155 0012707 230.7410 129.2705 15.32764447318372
ZHUHAI-1 03C            
1 44537U 19060D   25157.20324492  .00018270  00000+0  43050-3 0  9997
2 44537  97.5423 300.2128 0019186 200.1406 159.9085 15.41787506318585
ZHUHAI-1 03D            
1 44538U 19060E   25157.07916837  .00011990  00000+0  41363-3 0  9990
2 44538  97.4991 292.4007 0011806 209.5643 150.4932 15.30069354318242
ZHUHAI-1 03E            
1 44539U 19060F   25157.14978487  .00009531  00000+0  36122-3 0  9993
2 44539  97.5187 294.4807 0010119 267.8685  92.1395 15.27060727318134
ATLAS 5 CENTAUR DEB     
1 44694U 18079BG  25155.71418324 -.00000097  00000+0  00000+0 0  9995
2 44694  13.1751  69.9144 4754534 239.0108  65.7320  1.77434726 39865
GAOFEN-7                
1 44703U 19072A   25157.18504410  .00003582  00000+0  16285-3 0  9992
2 44703  97.2914 226.5642 0008705 249.3250 110.7053 15.21338489310470
STARLINK-1010           
1 44716U 19074D   25156.72288325  .00018714  00000+0  37901-3 0  9992
2 44716  53.0570 341.6134 0001493 190.5245 169.5730 15.46479486307105
JILIN-1 GAOFEN 2A       
1 44777U 19075A   25157.09781921  .00008418  00000+0  31114-3 0  9991
2 44777  97.5323 229.7573 0007571 351.9776   8.1341 15.27950378307254
NINGXIA-1 1             
1 44779U 19076A   25157.07026382 -.00000043  00000+0  56638-4 0  9991
2 44779  45.0076  60.5194 0010459 180.9694 179.1121 14.01923795285071
NINGXIA-1 5             
1 44783U 19076E   25157.15496788 -.00000044  00000+0  55931-4 0  9992
2 44783  45.0075  59.4938 0010330 168.5270 191.5801 14.01947929285098
KL-ALPHA A              
1 44785U 19077A   25156.86845670  .00000060  00000+0  68330-4 0  9994
2 44785  88.9094 264.1370 0013031 122.8193 237.4217 13.55995949274733
CARTOSAT-3              
1 44804U 19081A   25157.13785935  .00003667  00000+0  17667-3 0  9991
2 44804  97.4813 218.7820 0013959  33.3015 326.9095 15.19288682306322
JILIN-1 GAOFEN 2B       
1 44836U 19086A   25157.17809409  .00003980  00000+0  21581-3 0  9996
2 44836  97.5314 227.1122 0016058 180.7017 179.4195 15.15053214303455
DUCHIFAT-3              
1 44854U 19089C   25156.94431589  .00035402  00000+0  69745-3 0  9991
2 44854  36.9441  18.3082 0005090 290.7166  69.3044 15.46287434302455
ANGELS                  
1 44876U 19092D   25156.49769131  .00019623  00000+0  42855-3 0  9996
2 44876  97.4566 354.8223 0008161 136.0110 224.1789 15.44202450303515
TIANQIN 1 (CAS-6)       
1 44879U 19093A   25157.16911112  .00003251  00000+0  32115-3 0  9991
2 44879  97.8068 238.9274 0011023 217.5563 142.4888 14.92595939295909
ETRSS-1                 
1 44880U 19093B   25157.10803682  .00003196  00000+0  31454-3 0  9992
2 44880  97.8076 239.1175 0011174 219.0976 140.9437 14.92756726295899
TIANYAN 01              
1 44881U 19093C   25157.19218784  .00000891  00000+0  10909-3 0  9996
2 44881  97.7924 232.9126 0012543 239.5174 120.4803 14.85595230295574
TIANYAN 02              
1 44882U 19093D   25157.20208823  .00004641  00000+0  38726-3 0  9996
2 44882  97.8226 244.7703 0010249 200.7475 159.3333 14.99030828296176
CBERS 4A                
1 44883U 19093E   25157.18822524  .00001055  00000+0  14079-3 0  9995
2 44883  97.7929 230.5228 0001248 340.1132  20.0033 14.81600258295406
WEILAI 1R               
1 44884U 19093F   25157.09559811  .00003629  00000+0  32676-3 0  9994
2 44884  97.8088 242.1187 0009819 213.4746 146.5855 14.96211407296106
FLORIPASAT-1            
1 44885U 19093G   25157.14226792  .00003584  00000+0  30484-3 0  9995
2 44885  97.8180 244.7359 0009420 208.6176 151.4530 14.98450612296234
SHUNTIAN                
1 44886U 19093H   25157.23104258  .00002154  00000+0  21535-3 0  9997
2 44886  97.8203 242.6471 0011410 229.8787 130.1432 14.92475226296055
2019-093L               
1 44889U 19093L   25157.15705849  .00003006  00000+0  30466-3 0  9994
2 44889  97.7886 234.9109 0011869 214.5356 145.5092 14.91610846295674
ELEKTRO-L 3             
1 44903U 19095A   25156.92873676 -.00000085  00000+0  00000+0 0  9993
2 44903   0.0725 183.7274 0000431 268.9793 212.2864  1.00272102 19932
GONETS-M 14             
1 44905U 19096A   25156.88494502  .00000038  00000+0  20525-3 0  9993
2 44905  82.5227 317.9156 0012874 252.4108 107.5566 12.42893319246932
GONETS-M 15             
1 44906U 19096B   25156.91016241  .00000025  00000+0  11312-3 0  9998
2 44906  82.5248 318.2945 0014657 276.0479  83.8931 12.42895730246908
GONETS-M 16             
1 44907U 19096C   25156.93708487  .00000026  00000+0  11782-3 0  9993
2 44907  82.5193 317.3996 0010537 320.8769  39.1548 12.42853910246897
RS-44 & BREEZE-KM R/B   
1 44909U 19096E   25156.72302662  .00000009  00000+0 -23349-5 0  9993
2 44909  82.5220 229.8402 0216441 304.7780  53.3116 12.79740787254193
JILIN-1 KUANFU 01       
1 45016U 20003A   25157.15030079  .00003710  00000+0  22777-3 0  9994
2 45016  97.5412 232.7745 0001459 311.5741  48.5364 15.10709815298575
XINGYUN-2 01            
1 45602U 20028A   25157.23683657  .00001625  00000+0  10529-3 0  9992
2 45602  97.4645 153.3040 0011252  62.8540 297.3835 15.09459194278085
XINGYUN-2 02            
1 45603U 20028B   25157.16872350  .00002441  00000+0  15661-3 0  9994
2 45603  97.5079 165.3518 0012976 119.9704 240.2815 15.09349115278076
HAIYANG-1D              
1 45721U 20036A   25157.14451543  .00000157  00000+0  72192-4 0  9994
2 45721  98.6298 102.0944 0002369 115.0309 245.1121 14.34109248261070
M2 PATHFINDER           
1 45727U 20037E   25156.74208458  .00001534  00000+0  12109-3 0  9992
2 45727  97.8121 339.3670 0012607 350.6492   9.4496 15.02178808268931
GAOFEN DUOMO (GFDM)     
1 45856U 20042A   25157.17423753  .00001005  00000+0  15040-3 0  9996
2 45856  97.8245 224.5756 0011212 206.7142 153.3492 14.76734001265514
